GLOBALSTAR M001 [-]     
1 25162U 98008A   24032.88622656 -.00000055  00000+0  31695-3 0  9992
2 25162  52.0066 352.2580 0001446 286.7608  90.0729 12.38175606181617
GLOBALSTAR M004 [-]     
1 25163U 98008B   24032.49163976 -.00000080  00000+0  13127-3 0  9993
2 25163  51.9992 144.6517 0002340 243.9057 195.4994 12.63349271198277
GLOBALSTAR M002 [-]     
1 25164U 98008C   24032.44854171 -.00000093  00000+0 -32638-3 0  9996
2 25164  52.0025  58.2179 0001085 298.5773  61.4938 11.61496763125767
GLOBALSTAR M003 [-]     
1 25165U 98008D   24032.65347535  .00000075  00000+0  17525-2 0  9996
2 25165  51.9809 117.6239 0007649   7.8545 140.4217 12.11974332172403
GLOBALSTAR M014 [-]     
1 25306U 98023A   24032.92950826 -.00000048  00000+0  55149-3 0  9999
2 25306  51.9878 350.7745 0000743 132.7136 345.7502 11.65464348132727
GLOBALSTAR M006 [-]     
1 25307U 98023B   24032.45890799 -.00000096  00000+0 -41278-3 0  9992
2 25307  51.9966  25.6848 0003648 288.4756 240.5530 11.58156320158699
GLOBALSTAR M015 [-]     
1 25308U 98023C   24032.47022196 -.00000118  00000+0 -10240-2 0  9992
2 25308  51.9821 101.1357 0012111 259.5437 199.8245 11.48857727136418
GLOBALSTAR M008 [-]     
1 25309U 98023D   24032.72839275 -.00000073  00000+0  18512-3 0  9995
2 25309  51.9939 211.8686 0002419 172.9004 318.6136 12.36036044175839
